N.Registro,Nombre,GPS.Longitud,GPS.Latitud,Fecha.Inicio (convenio),Fecha.Termino (convenio),Pais,Estado,Municipio,Dirección,Colonia,C.Postal,Rep.Legal,Telefono,Email,,,,,,,
1,"El Colegio de Abogados de Jalisco Foro Federalista ""Lic. Alberto Orozco Romero""",-103.367803,20.694661,23-09-2014,23-09-2017,Mexico,Jalisco,Guadalajara,Calle Nicolás Romero #174,Colonia Villaseñor,,Jose Ramon Alberto leal Hernadez,,,,,,,,,
2,El Fortin de la Labor S.A de C.v,-103.360309,20.673978,29-10-2014,29-10-2017,Mexico,Jalisco,Guadalajara,Calle Av. Niños Heroes #2100 ,Colonia Barrera,,Edgar Lucke Gracian,,,,,,,,,
3,El Colegio de Formacion Academica Fray Pedro de Gante S.c,-99.14124,19.369305,11-06-2014,11-06-2017,Mexico,Mexico,CDMX,Calzada de Tlalpan #1312 Altos Portales Oriente Benito Juarez,,3570,Juan Luis Solis Mendez,,,,,,,,,
4,Universidad de Colima ,-103.698756,19.249014,Null,28-02-2017,Mexico,Colima,Colima ,Av. Universidad #333 , Colonia las Vivoras de la Ciudad de Colima,,José Eduardo Hernandez  Nava,,,,,,,,,
5,"Investigacion y Desarrollo de Nanomateriales, S.A. de C.V.",-101.015255,22.178755,30-01-2014,30-01-2017,Mexico,San luis potosi,San Luis Potosi,Calle Satelite Sur #946 del Fraccionamiento Haciendas Mezquital,,78130,Raquel Tovar Urtado,,,,,,,,,
6,El Comodatario,-103.358941,20.675434,21-07-2014,21-07-2017,Mexico,Jalisco,Guadalajara,Avenida Juárez #976, Colonia Centro,44100,Carmen Enedina Rodriguez Armenta,,,,,,,,,
7,Centro de Enseñanza y Capacitacion Visoes S.C,-110.955461,29.128006,29-07-2014,29-07-2017,Mexico,Sonora ,Hermosillo ,Calle Mision de Remedios #9 ,Colonia Bachoco,,Martha Elizabeth Soto Alapizco,,,,,,,,,
8,Integro,-103.356279,20.673383,03-03-2015,03-03-2018,Mexico,Jalisco,Guadalajara,Calle Francisco I Madero #729,Colonia Americana,44190,Sergio Javier Vazquez Martinez,,,,,,,,,
9,Instituto Tecnologico Superior de Tala,-103.685656,20.645267,07-05-2015,07-05-2018,Mexico,Jalisco,Tala,,,,Armando Perez Sanchez,,,,,,,,,
10,Celula Expertis S.C,-103.419704,20.627379,14-10-2015,14-10-2018,Mexico,Jalisco,Zapopan,Calle Virgen #5535,Colonia Arboledas,45070,Raúl Meza Ayala,,,,,,,,,
11,Gobierno del Estado,-103.347974,20.699191,01-04-2015,01-04-2018,Mexico,Jalisco,Guadalajara,Av. Prolongacion Alcalde #1221 Mezaine,Colonia Miraflores,,Jorge Aristoteles Sandoval Diaz,,,,,,,,,
12,Secretaria de Desarrollo Economico,-103.369488,20.673459,18-06-2015,18-06-2018,Mexico,Jalisco,Guadalajara,Calle Manuel López Cotilla #1505,Col Americana,,Jose Palacios Jimenez,,,,,,,,,
13,EPR Etzatlán,-104.082986,20.768196,03-09-2015,03-09-2018,Mexico,Jalisco,Etzatlán,Sinaloa Poniente #145,Colonia Centro,,Raul Ceja Manzo,3861000844,rceja@sems.udg.mx,,,,,,,
15,Radio Ameca de Ocidente S.A de C.V,-104.046903,20.545442,15-09-2016,15-09-2019,Mexico,Jalisco,Ameca ,Calle Juárez #84 C ,,,Salvador Llanes López,375758058 / 37575852900,contacto@lalider.com.mx,,,,,,,
16,Agronegocios Nueva Galicia,-103.396294,20.665719,23-11-2016,23-11-2019,Mexico,Jalisco,Guadalajara,Avenida Tepeyac #54,Colonia Chapalita,44500,Francisco Javier Mayorga Campos,33 3650 2723,fmayorga@agronegociosng.com,,,,,,,
17,Urenda Contadores S.C,-102.2944,19.979412,26-10-2016,26-10-2019,Mexico,Michoacan,Zamora de Hidalgo,Calle Holanda #38,Colonia los Laureles,,Andres Urenda Magaña,351 515 4048,s.luevanosurendacia@outlook.com,,,,,,,
18,Plexus Electronica S. de R.L de C.V,-103.486428,20.727358,14-11-2016,14-11-2019,Mexico,Jalisco,Zapopan,Paseo del Norte #4640 dentro del tecnology Park,,,Carlos Haro Mercado,33 3777 9700,rloya@cuestacampos.com,,,,,,,
19,Productos del Valle de San Martin Hidalgo,-103.907812,20.432074,05-09-2016,05-09-2019,Mexico,Jalisco,San Martin Hidalgo ,Solidaridad #127 en la localida deTepahuaje de Morelos,,,José Efraín Luquín Jiménez,33 1000 2896,productosdelvallemh@hotmail.com,,,,,,,
20,V&G Livs Asociados S. de R.L de C.V,-103.481838,20.713821,16-12-2016,16-12-2019,Mexico,Jalisco,Zapopan,Calle Paseo de las Bugambilias #105 Rancho Contento,,,Ivett Paola García Martín,33 38 14 26 57,ivettpaola78@gmail.com,,,,,,,
21,Seleccion de Granos Costa Sierra,-104.786253,20.52446,06-12-2016,06-12-2019,Mexico,Jalisco,Mascota,Calle Eprigmenio González #50 ,,,Arnulfo Lopez Aguilar,3883860260,pastureriaaraceli@yahoo.com.mx,,,,,,,
22,Natural Substitute de México S.A. de C.V,-103.935381,20.65733,16-12-2016,16-12-2019,Mexico,Jalisco,Ahualulco del Mercado,"Calle Rayon, San Ignacio Portes Gil #1",,,Jorge Luis Gallegos Andalon,3861006256,jl_gallegoa@outlook.com,,,,,,,
23,Despacho Contable Fiscal Amaya,-104.083461,20.764445,16-12-2016,16-12-2019,Mexico,Jalisco,Etzatlán,Calle Escobedo #249 ,Colonia Centro,,Guadalupe Janeth Amaya Ramos,386 75 3 18 66,etza_contable_fiscal@hotmail.com,,,,,,,
24,Seguridad y Alarmas de Occidente,-105.225455,20.626477,14-11-2016,14-11-2019,Mexico,Jalisco,Puerto Vallarta,Avila Camacho #3642,Colonia Cardenas,,Arcadio Fregoso Aguayo,36452048/36452098,saosa_24@hotmail.com,,,,,,,
25,Ingenieria Medica,-103.507062,20.475044,14-11-2016,14-11-2019,Mexico,Jalisco,Tlajomulco de Zuñiga,"Carretera Guadalajara - Morelia Km 23 No. 18000, Interior 22 col. Santa Cruz de las Flores.",,,Raúl Zamora Contreras,33 3796 4294,imesamex@prodigy.net.mx,,,,,,,
26,"Bebidas Mundiales S, de R.L de C.V",-100.313742,25.706799,07-12-2016,07-12-2020,Mexico,Nuevo Leon,Monterrey,Avenida Alonso Reyes Nte. #3001,Colonia Regina,64290,Guillermo Muñoz Ascencio,3757580622,adrian.ahumada@arcacontal.com,,,,,,,
27,Teja Azulejo y Ceramica de Santa Cruz de las Huertas,-103.264171,20.622711,17-05-2016,17-05-2020,Mexico,Jalisco,Tonalá,"Calle Ramón Corona pte. #84, Colonia santa Cruz de las Huertas",,,David Ramírez Jiménez,33 3681 6352,azulejosypisosdebarro@hotmail.com,,,,,,,
28,Compañia Industrial Tecolotlán S.A. De C.v,-104.040402,20.186304,05-04-2016,05-04-2020,Mexico,Jalisco,Tecolotlán,Av. Guadalajara #825,,,Roberto Santana muñoz,(349)776 0875,camisas@rangers.com.mx,,,,,,,
29,Fideicomisos Instituidos en Relación con la Agricultura (FIRA) ,-104.047474,20.546922,26-01-2016,26-01-2020,Mexico,Jalisco,Ameca,"Av. Juárez 58-A, ",Colonia Centro,46600,,375-758-1442,rgarcia@fira.gob.mx,,,,,,,
30,"Consejo de la Judicatura , del poder Judicial del Estado de Jalisco ",-103.344687,20.677467,15-06-2016,15-06-2020,Mexico,Jalisco,"Guadalajara, Jal. ","Av. Miguel Hidalgo y Costilla 190, Zona Centro, 44100 Guadalajara, Jal.",,,Dra. María Carmela Chávez Galindo ,(0133) 3001 2345,,,,,,,,
31,"Desarrollo Gestión y Servicios Profesionales, S.C. ",-103.379373,20.701002,05-01-2017,05-01-2020,Mexico,Jalisco,"Guadalajara, Jal. ","Calle Montreal 1555-1553, Providencia, 44630 Guadalajara, Jal.",,,Sr. Gustavo Antonio Duarte Valdés ,33 3070 4474,gduarte@dgsprosc.com,,,,,,,
32,Inverhoteles S.A. de C.V.,-103.415932,20.612383,02-02-2017,02-02-20,Mexico,Jalisco,"Tlaquepaque, Jal. ","Finca N° 8650 Av. Camino al ITESO, Colonia Santa María Tequepexpan , C.P. 45580 ",,,C. Juan Carlos Mondragón Castañeda ,(33)38341238,rcovarrubias@inverhoteles.com,,,,,,,
33,Hoteles Universidad de Guadalajara y Club  Deportivo ,-103.381056,20.671472,24-03-2017,24-03-2020,Mexico,Jalisco,"Ameca, Jal. ","Centro Universitario de los Valles, carretera guadalajara- Ameca km. 45.5, C.P. 46600, Ameca Jal. ",,,Mtro. José Antonio Ibarra Cervantes ,(33) 3151-4080,clubdeport.udg@gmail.com,,,,,,,
36,"Sociedad Nacional Promotora de Becarios, S.C. ",-99.15459,19.415084,06-01-2017,06-01-2020,Mexico,,"México, D.F. ","199, PISO, 4, De la Calle San Luis Potosí, Roma Norte , C.P. 06700",,,Lic. Jorge Huerta Alvarado ,55464885,dbarrera@probecarios.com,,,,,,,
37,La Valerio Camacho S.P.R. DE R.L. ,-103.868372,20.388782,03-03-2017,03-03-2020,Mexico,Jalisco,"San Martín de Hidalgo, Jal. ","20 de Noviembre, El Palo Verde, 46798 El Crucero de Santa María, Jal.",,,Sr. Jorge Camacho Becerra ,377 773 4500,lavaleriocamacho@yahoo.com.mx,,,,,,,
38,FHEGARSA S.A. DE C.V. ,-103.836436,20.884355,03-02-2017,03-02-2020,Mexico,Jalisco,"Tequila, Jal. ","Fin 97 de la calle Niños Héroes , C.P. 46400",,,Lic. Manuel García Rivera ,3747420744 ext. 104,carlostql@gmail.com,,,,,,,
39,Laboratorios LABANCLI,-104.041201,20.548352,26-05-2017,26-05-2020,Mexico,Jalisco,"Ameca, Jal. ","Finca #2 Acompañada de la letra B  de la calle Bernabe Godoy, colonia Arboledas , C.P. 46600 ",,,Q.F.B. Blanca Estela Zepeda Aguilar ,3335765168,juridico.labancli@hotmail.com.mx,,,,,,,
40,Voz Pro Salud Mental ,-103.381201,20.722486,26-06-2017,26-06-2020,Mexico,Jalisco,"Zapopan , Jal. ","Finca 531 de la calle Aurelio Ortega, Col. los Maestros , C.P. 45150. ",,,C. Sara del Carmen Valenzuela López ,3313409850,valenzuela.sara@gmail.com,,,,,,,
41,"Despacho Fiscal Contable ""El despacho"" ",-103.934701,20.435049,14-11-2017,,Mexico,Jalisco,"San Martín de Hidalgo, Jal. ","Finca # 13 acompañado de la letra C de la Calle Constitución, colonia centro, C.P. 46770",,,Dra. Ma. del Refugio López Palomar ,Movil: 3313472116                         Oficina: 3857550361,cuquis@profesores.valles.udg.mx,,,,,,,
42,El Instituto de Supervisión Avanzada y Actualización en Psicología S.C. ,-103.356321,20.673356,03-03-2017,03-03-2020,Mexico,Jalisco,"Guadalajara, Jal. ",Francisco I. Madero #729,,,Dra. Cecilia Álvarez Torres ,3337001291,ceciliaalvareztorres@yahoo.com.mx,,,,,,,
43,H. Ayuntamiento de San Martín de Hidalgo ,-103.929012,20.435679,14-11-2017,30-09-2021,Mexico,Jalisco,"San Martín de Hidalgo, Jal. ","calle Juarez #12 colonia centro, ",,,Dr. Carlos Alberto Rosas Camacho ,3336625832,sindicatura@sanmartindehidalgo.gob.mx,,,,,,,
44,Servicio de Administración Tributario / SAT ,-103.358979,20.675413,05-01-2017,05-01-2020,Mexico,Jalisco,"Guadalajara, Jal. ",Finca #976 de la Av. Juarez C.P. 44100 ,,,Mtra. Paola Esther Michel Corona ,"SAT ADUANA: 38809758                         SAT Centro 38362000 ext. 64753                 SAT Jalisco ""2"": 38362000 ext. 69719,69718                                  SAT Zapopan: 38362000 ext. 63664, 63601","SAT Aduana: ana.gollazs@sat.gob.mx                        SAT Centro : javier.ledezma@sat.gob.mx                                   SAT Jalisco ""2"": minerva.landeros@sat.gob.mx                         SAT Zapopan: ana.gonzalezs@sat.gob.mx",,,,,,,
45,El Instituto de Justicia Alternativa del Estado de Jalisco ,-103.359151,20.681255,30-09-2017,30-09-2021,Mexico,Jalisco,"Guadalajara, Jal. ","Finca# 976 de la Av. Juarez, C.P. 44100",,,"Director General, Pedro Bernardo Carvajal Maldonado/ Secretario Lic. Ignacio Alfonso Rejón Cervantes  ",33-13800000,pedro.carvajal@ija.gob.mx,,,,,,,
46,"La Procuraduría General de la Republica  ""LA PGR""",-103.347763,20.667313,04-09-2017,04-09-2020,Mexico,Jalisco,"Guadalajara, Jal. ","Av. 16  de septiembre #591, esquina con Av. La Paz , Colonia Mexicaltzingo, C.P. 44180",,,Lic. Juan José Martínez González ,33 3942 3300,,,,,,,,
47,Centro Internacional de Innovación ,-103.476156,20.713319,10-11-2017,10-11-2020,Mexico,Jalisco,"Zapopan , Jal. ","Carretera a Nogales #11556 interior 4 , C.P. 45221",,,C. Juan José Amezcua Verduzco,,,,,,,,,
48,Despacho contable y Fiscal Marin ,-104.045249,20.546267,07-12-2017,07-12-2020,Mexico,Jalisco,"Ameca, Jal. ","finca # 35 en la calle 20 de noviembre , colonia centro , C.P. 46600 ",,,Mtro. Ruben Carlos Marin Arreola ,375 7602 607,marincontadores@gmail.com ,,,,,,,
49,"Transporte , Representación y Logística, Sociedad Anonima de Capital Variable",-103.504839,20.724656,23-10-2017,23-10-2020,Mexico,Jalisco,"Zapopan , Jal. ",Carretera Guadalajara - Nogales KM. 14 en el local marcado con el umero 8 ,,,C. Sergio Hernández Rosales ,01 33 3629 6534,operaciontrl@gmail.com,,,,,,,
50,PREYCO ,-103.35029,20.657947,07-11-2017,07-11-2020,Mexico,Jalisco,"Guadalajara, Jal. ","Calzada de las Palmas No. 20 en la colonia Rincon de Agua Azul, C.P. 44467",,,C. José de Jesús Dueñas García ,37.00.15.18,direccion@preyco.com.mx,,,,,,,
51,KRYO CEROS S.A. DE S.V. ,-103.470067,20.530894,26-05-2017,26-05-2020,Mexico,Jalisco,"Tlajomulco de Zuñiga, Jal. ","Calle Sicilia #14 Colonia San Miguel Residencial , C.P.45650",,,C. Evangelina Martínez Ramirez ,3314349099,evamtz@kryocero.com,,,,,,,
52,Corporativo MB ,-103.934688,20.43506,26-05-2017,26-05-2020,Mexico,Jalisco,"San Martín de Hidalgo, Jal. ","Finca # 58 de la calle independecia , Colonia Centro. C.P. 46770",,,C. Marcos Alejandro Mendoz Buenrostro ,3857553002/3757603798,corporativo.mb@hotmail.com,,,,,,,
53,Sociedad Corporativa  de Auditorias Sociedad Civil ,-103.372574,20.667678,17-05-2017,17-05-2020,Mexico,Jalisco,"Guadalajara, Jal. ","Finca # 486 de la calle Simón Bolivar # 486 , colonia Lafayette , C.P. 44140",,,C.Sergio Ramírez Sánchez ,01 33 3615 3595,,,,,,,,
54,Díaz Haro Sociedad Civil ,-103.980728,20.702521,24-03-2017,17-03-2020,Mexico,Jalisco,"Ahualulco ,Jal. ","Finca 201 de la calle Degollado # 201 , colonia Copal, C.P. 46730 ",,,C. Joaquin Díaz Cortez ,386 75 2 05 65,joaquindiaz18@hotmail.com,,,,,,,
55,VIDANTA LOS CABOS ,-103.358958,20.675435,17-10-2017,17-10-2018,Mexico,Jalisco,"Guadalajara, Jal. ",La finca marcada con el numero 976 de la Av. Juarez C.P. 44100 ,,,C. Gabriela Mejía Zavala ,624 163 4000,atencionclientes@vidanta.com reservaciones@vidanta.com,,,,,,,
56,Baterias DINO ,-103.713001,20.655065,26-05-2017,26-05-2020,Mexico,Jalisco,"Tala, Jal. ","Finca 151B de la Av. Solidaridad, C.P. 45300",,,Ing. Dino Giovanni Vega Ramírez ,3313312778,bromeroj13@gmail.com,,,,,,,
57,Meza y Asociados Contadores Publicos ,-103.354645,20.666079,17-06-2017,17-06-2020,Mexico,Jalisco,"Guadalajara, Jal. ","finca 135 de la calle Pavo #706 colonia centro, C.P 44100",,,C. Jorge Meza Oliva ,3314151567,jmeza.73@hotmail.com,,,,,,,
58,Ruelas Gallardo García Sociedad Civil ,-103.374913,20.678216,26-05-2017,26-05-2020,Mexico,Jalisco,"Guadalajara, Jal. ","finca 115 de la calle amado nervo , colonia Ladron de Guevara ",,,C. Rogelio Gregorio García Díaz ,3317220093,lic.ruelas.10@gmail.com,,,,,,,
59,Industrias Melder ,-104.050658,20.545487,31-10-2017,31-10-2020,Mexico,Jalisco,"Ameca, Jal. ","Prolongacion Vallarta 375, colonia centro , C.P. 46600 ",,,C. Horacio Luque  Hernández ,375 758 0254,,,,,,,,
61,Cruz Roja Mexicana ,-104.031397,20.538636,26-05-2017,26-05-2020,Mexico,Jalisco,"Ameca, Jal. ","Finca 52 de la calle 12 octubre, colonia Santa Cecilia, C.P. 46610",,,C. Luis Carlos Curiel Uribe ,3757602607,rmarin.jal@cruzrojamexicana.org.mx,,,,,,,
62,Olds College,-114.092685,51.788848,17-02-2017,17-02-2020,Canada,Alberta,Canadá,"4500, 50th streer. Olds, Alberta Canadá.",,,Jason Dewling,"4,035,568,224",info@oldscollege.ca,,,,,,,
63,IJA ,-103.365362,20.672736,13-09-2017,13-09-2020,Mexico,Jalisco,Guadalajara,Calle Moscu #60  Col. Americana Guadalajara,,,Pedro Bernardo Carbajal Maldonado,380 0000 ext 101,pedro.carvajal@ija.gob.mx,,,,,,,
64,Unión Local de Productores de Caña ,-103.709629,20.650713,19-06-2017,19-06-2020,Mexico,Jalisco,"Tala, Jal. ","Finca 76 de la carretera Guadalajara- ameca, C.P. 45308 ",,,C. Serafin Hernández Campos ,3847381465,uniónlocal@hotmail.com,,,,,,,
65,Universidad de Colima,-103.700271,19.250118,14-01-2017,14-01-2020,Mexico,Colima,Colima,"Avenida Universidad número 333 colonia las Viboras, C.P 208040, en la ciudad de Colima",,,Elías Flores García,3161033 EXT. 31302,webmaster@ucol.mx,,,,,,,
66,CONTINENTAL,-103.441953,20.584909,25-05-2017,25-05-2020,Mexico,Jalisco,tlajomulco de zuñiga,la tijera #3,,,Ing. Marisol Contreras Hernandez,3318181814,hernandez@Cntinental-corporation.com,,,,,,,
67,Centro de Investigacion  y de Estudios Avanzados del I.P.N,-103.464396,20.667508,12-05-2017,12-05-2020,Mexico,Jalisco,Zapopan ,Av. del bosque #1145 el bajio,,,Dr. Pablo Moreno Villalobos,3337773600,pmoreno@gdl.cinvestav.mx,,,,,,,
68,Ingeniera Medica Especializada SA de CV,-103.507062,20.475064,08-05-2017,8-05-2020,Mexico,Jalisco,Tlajomulco de Zuñiga,Carretera Guadalajara Morelia km 23 numero 1800 int 22,,,Selmastrid Zaira Zamora Tapia,331687314,selmazamora@imesamex.com,,,,,,,
69,Escuela preparatoria Regional de Amatitan ,-103.73634,20.830498,24-03-2017,24-03-2020,Mexico,Jalisco,Amatitan ,López Mateos No.167,,,Celia Margarita Castañeda,,celia.margarita@redudg.udg.mx,,,,,,,
70,Escuela Preparatoria Regional de Tequila,-103.840143,20.891741,10-05-2017,10-05-2020,Mexico,Jalisco,Tequila ,San Martin 175,,,Alberto Gutierrez Gomez,3747420686,a_gutierrz@sems.udg.mx,,,,,,,
71,Impulsora de Comunidades Autosustentables,-103.396279,20.665751,17-06-2017,16-06-2020,Mexico,Jalisco,Guadalajara,Av. Tepeyac 54 1er piso Col. Campo polo Chapalita,,,Pilar Perez Jimenez,3311654356,teresamayorga@yahoo.com.mx,,,,,,,
72,Agroservicios Nacionales SAPI de CV,-103.380001,20.658073,08-05-2017,8-05-2020,Mexico,Jalisco,Guadalajara,Nance 1545 del fresno ,,,Nancy Solano Jimenez,37930390 Ext 1146,nancy.solano@ansa.cc,,,,,,,
73,Empresa Gelpharma ,-103.442314,20.688323,27-04-2018,27-04-2021,Mexico,Jalisco,Zapopan Jalisco,"Calle Madero No. 5908, Col. Jocotan Zapopan Jalisco",,,Gilberto Lozano Valdivia,33 3777 4770,talentohumano2gelpharma.com,,,,,,,
74,BECCAR ,-103.055965,20.623377,13-09-2018,13-09-2021,,,Zapotlanejo Jalisco,"Morelos No. 574, Col. Santa Cecilia. C.P. $5430 Zapotlanejo, jalisco",,,Javier Becerra Torres ,(373) 735-6030,manuel.becerra@beccar.com.mx,,,,,,,
75,Notaria Publica No. 1 de Acatlan De Juárez,-103.59163,20.424745,29-10-2018,29-10-2021,,,Acatlan de Juárez,"Calle Cuitláhuac #15 Colonia Centro, C.P. 45700 Acatlan de Juarez Jalisco",,,Gerardo Hinojosa Zepeda,3872221222,notaria1acatlan@telmexmail.com,,,,,,,
76,Grupo Rural de Apicultures del valle de ahualulco ,-103.962275,20.697197,29-10-2018,29-10-2021,,,Ahualulco del Mecado,"Prolongacion Juárez #6 Ahualulco del Mercado, Jalisco C.P. 46730",,,Carlos Alejandro López Carrillo,(386)-752-2528,soporte@valledeahualulco.com,,,,,,,
77,Led Concept ,-103.365382,20.679896,18-10-2018,18-10-2021,,,Guadalajara Jalisco,"Calle Reforma #1276 Colonia Rojas Ladrón de Guevara, C.P 44650 Guadalajara Jalisco",,,Irving Gillermo Garcia Ramirez,(33) 3825 7230,servicio@ledconcept.com.mx,,,,,,,
78,Bombas Mejoradas,-103.366783,20.645072,08-10-2018,08-10-2021,,,Guadalajara Jalisco,"Calle 4 no. 2368 entre la calle 1 y 3 de la zona industrial, C.P 44940 guadalajara Jalisco",,,Xóchitl Flores Pelayo,33 3811 8517,,,,,,,,
80,Destiladora Agave Azul ,-104.009627,20.784019,11-12-2018,11-12-2021,,,San Juanito Escobedo Jalisco,Cuauhtémoc No. 1000 ol. VistaHermosa C.P. 46560 San Juanito Escobedo Jalisco,,,José de Jesus Garcia Garcia,38675407705,zgomez@destiladoraagaveazul.com,,,,,,,
81,Despacho Contable,-103.978183,20.701981,29-10-2018,29-10-2021,,,Ahualulco del Mecado,Calle Guillermo Prieto #24 colonia centro Ahualulco del Mercado,,,L.C.P Y M.I Miguel Angel Bayardo Tiznado,3331562802,Bayardo_tiznado_asociados@hotmail.com,,,,,,,
82,Centro Educativo de San Juanito Escobedo,-104.001066,20.800314,10-01-2018,10-01-2021,,,San Juanito Escobedo Jalisco,Calle juárez No. 32 Col Centro San Juanito Escobedo,,,Juan Guillermo Covarrubias Rentería,,,,,,,,,
83,ENERI,-103.37979,20.673488,14-03-2018,14-03-2021,,,Guadalajara Jalisco,"López Cotilla No. 2032 piso 8, Colonia Arcos Vallarta, Guadalajara Jalisco",,,Rafael Martinez Fuentes,(33) 5351 6257,info@eneri.com.mx,,,,,,,
84,Su Pollo ,-103.404709,20.65311,17-02-2018,17-02-2021,,,Zapopan Jalisco,"Coyoacán 1495 acompañada de la letra B, Colonia Ferrocarril, C.P 44440 Zapopan Jalisco",,,Mario Mireles Pérez,3337491521,dramirez@supollo.com.mx,,,,,,,
85,Maquinaria y Equipos de Tepatitlan ,-102.843394,20.745385,SF,SF,,,Tepatitlan Jalisco,Carretera Zapotlanejo-Lagos de Moreno km. 27.5 C.P 47600 ,,,Patricia Iñiguez Orozco,378 715 2188,patricia.iñiguez@maquinariatepa.com,,,,,,,
86,Estructuras Orion,-103.383572,20.693003,SF,SF,,,Guadalajara Jalisco,"Calle Ostia No. 2782, col Providencia, C.P. 44630 Guadalajara jalisco",,,José Domingo Uriarte Parra,36418812- 3336418812,tania.campos@grupoaceroyconcreto.com,,,,,,,
87,Estrubra Constructora,-103.408573,20.671441,30-01-2018,30-01-2021,,,Zapopan Jalisco,"Calle Cerro del Collí 1399, Colonia Jardines de San Ignacio, Zapopan Jalisco",,,Emmanuel Aguilar Cuenca ,331-601-8140  333-144-0205,a.e_prisscuenca@auditores.com  prisma@aeconsultores.com,,,,,,,
88,Donber Equipos Industriales ,-103.449593,20.644788,15-02-2018,15-02-2021,,,Zapopan Jalisco,"Calle Eucalípto No. 862 Colonia Paraísos del Collí, C.P 45069 Zapopan Jalisco",,,Leonardo Suarez López,31808313 / 10286597,ventasdonber@donber.com.mx,,,,,,,
89,Agavera Orendain,-103.989023,20.912258,15-02-2018,15-02-2021,,,Magdalena Jalisco,"Avenida Hidalgo en la Finca Marada con el numero 450, C.P 46470 en Magdalena Jalisco",,,Guillermo Javier Orendain González,,tequilamarengo@hotmail.com,,,,,,,
90,FORMFLEX,-103.456041,20.682342,28-05-2018,28-052021,,,Zapopan Jalisco,Colonia Vallarta Parque Industrial en Periferico Poniente No. 7301 en Zapopan jalisco,,,Federico Boyer Ramirez,4448403574,director.operaciones@formflex.com.mx,,,,,,,
91,Despacho Juridico Lepe & Lepe,-104.0494,20.200377,18-06-2018,18-06-2021,,,Tecolotlán Jalisco,Calle Leona Vicario No.64 Colonia Centro Tecolotlan Jalisco,,,Carlos Ruben Lepe Lepe,3757503525,crlepe@hotmail.com,,,,,,,
92,MEXIQUITO,-103.820343,20.364157,07-02-2018,07-02-2021,,,Cocula Jalisco,"Calle Román Terán No. 137, Col. Centro, CP 48500 Cocula Jalisco",,,Ana Yadira Preciado Camacho,3751047907,estanciamexiquito@hotmail.com,,,,,,,
93,Kapital Financiera,-103.420345,20.678414,22-01-2018,22-01-2021,,,Zapopan Jalisco,"Finca con el numero 4983 acompañado de la letra A de la calle Avenida Vallarta, Col. Prados Vallarta, CP 45020 Zapopan jalisco",,,Hugo Raúl Blum Casillas,3323498993,c.hernandez@kapitalfinanciera.com,,,,,,,
94,Colegio de Contadores Públicos de Guadalajara Jalisco,-103.429299,20.681872,10-04-2018,10-04-2021,,,Zapopan Jalisco,Calle Oscar Wilde No.5561 Col. Jardines Vallarta C.P. 45020 Zapopan Jalisco,,,Margarita Medrano Hernandez,36297445,direccionejecutiva@ccpg.org.mx,,,,,,,
95,Hacienda de Oro Tequila,-103.736131,20.83522,10-01-2018,10-01-2021,,,Amatitan Jalisco,"KM 43-a, Colonia el mirador CP 45380 Amatitan Jalisco",,,David Partida Zuñiga,374 745 0759,xtinaog@hotmail.com,,,,,,,
96,Hacienda del Carmen Hotel & Spa,-103.91195,20.656528,22-01-2018,22-01-2021,,,Ahualulco del Mecado,"Ramón Díaz Ordaz #2-1 el carmen, Ahualulco del Mercado Jal.",,,Monica Baeza Serrano,3867524215,adrianamoya@hdaelcarmen.com,,,,,,,
97,NEWBAUER ,-103.337521,19.672182,20-09-2018,20-09-2021,,,Zapoltiltic,CARRETERA LIBRE SAHUAYO-COLIMA K.M.102.86,,,Mauricio Avila Aviles,(341 )341-111-6893,mavila@newbauerchemicals.com,,,,,,,
98,Manitas Mágicas,-104.047336,20.54481,28-05-2018,28-05-2021,,,Ameca Jalisco,"Calle General Julio Garcia Poniente No. 15 y 13, Col. Centro CP 46600 Ameca jalisco",,,Alejandra Bernal Gómez ,,aleja_bg@hotmail.com,,,,,,,
99,Ingenio de Tala,-103.719308,20.668556,03 de mayo 2018,03 de mayo 2021,Mexico,Jalisco,Tala Jalisco,KM 46 Carretera Guadalajara- Puerto Vallarta sin numero C.P. 45300 Tala Jalisco,Revolución,45330,Joaquin Rivera Meza,3847381465,unionlocal@hotmail.com,,,,,,,
100,C.I.G Abogados y Fiscalistas,-103.449924,20.692967,12 de noviembre 2018,12 de noviembre 2021,Mexico,Jalisco,Zapopan Jalisco,"Av. del Tule #713 entre Av. Vallarta y Av. Inglaterra Puertas del Tule, Zapopan Jal. C.P. 45017",Puertas del Tule,45017,Luis Francisco chavarin Muñoz ,36150270,fiscalchavira@outlook.es,,,,,,,
101,Despacho Arreola,-104.04365,20.546007,12 de noviembre 2018,12 de noviembre 2021,Mexico,Jalisco,Ameca Jalisco,"Calle Matamoros #55 Col. Centro Ameca Jal, C.P. 46600",Centro,46600,Blanca Ofelia Arreola Díaz,01 (375) 7586 301,despachoarreola@live.com.mx,,,,,,,
102,International Baskets,-103.845799,20.375703,15 de noviembre 2018,15 de noviembre 2021,México,Jalisco,Cocula Jalisco,"Calle Transformacion #22 Corredor Industrial ruta 80, C.P 48500 cocula Jalisco",Corredor Industrial,48500,Rodrigo Gonzalez Urrea,3777730130,rgonzalez@ibsamx.net,,,,,,,
103,CIECSEM (Centro de Intervenciones de Enfermeria y Capacitaion en Salud del Estado de México),-99.662686,19.287983,07 de noviembre 2018,07 de noviembre 2021,Mexico,Estado de México,Toluca Mexico,"Av. José María Morelos y Pavón 1405 C, Col. san Bernardino, C.P. 50080 Toluca Mexico",San Bernardino,50080,Diego Ricardo Farrera Piña,7222647408,ciecsem@gmail.com,,,,,,,
104,Despacho Contable Fiscal,-103.978333,20.907859,12 de noviembre 2018,12 de noviembre 2021,Mexico,Jalisco,Magdalena Jaliso,Calle Javier Mina #126 B C.P. 46470 Magdalena Jalisco,Centro,46470,Miguel Ángel Andrade Real,33116336289,conta.magdalena@hotmail.com,,,,,,,
105,COSEA,-103.402547,20.678941,28 de mayo 2018,28 de mayo 2021,Mexico,Jalisco,Guadalajara Jalisco,"Av. Mexico no. 3370, C.P. 44690 Guadalajara Jalisco",Av. México,44670,Francisco Montalvo Villalpando,31335346,francisco.montalvo@cosea.mx,,,,,,,
106,Notaria Publica 31 ,-103.370655,20.670336,19 de diciembre 2018,19 de diciembre 2021,Mexico,Jalisco,Guadalajara Jalisco,"José Guadalupe Zuno #2103 Colonia Americana, C.P. 44160 Guadalajara Jalisco",Americana,44160,Luis Gerardo Sandoval Fernández,36301920,notaria.31.guadalajara@outlook.es,,,,,,,
107,Udima (Universidad a Distancia de Madrid),-3.999046,40.631407,05 de julio 2018,05 de julio 2021,Mexico,Jalisco,"Collado Villalba, España","Vía de Servicio A-6, 15, 28400 Collado Villalba, Madrid, España",Collado Villalba,28400,Ma Concepcion Burgos Garcia,902 02 00 03.,informa@udima.es,,,,,,,
108,Casa Herradura COSESA B-F S. DE R.L DE C.V,-103.725523,20.840213,28 de mayo 2018,28 de mayo 2021,Mexico,Jalisco,Amatitan Jalisco,Camino a la Barranca del Tecuane # 10 Amatitan Jalisco,,45380,Homero Dominguez López,3747451199 ext. 2108,cristianlara@herradura.com.mx,,,,,,,
109,Middle East Technical University,32.808811,39.911036,23 de agosto 2018,23 de agosto 2021,Turquía,"Çankaya/Ankara,",,"Üniversiteler, Dumlupınar Blv. No:1, 06800 Çankaya/Ankara, Turquía",,6800,Mustafa Versan Kök,,rektor@metu.edu.tr,,,,,,,
110,Kenworht,-103.468119,20.708666,18 de diciembre 2018,28 de diciembre 2021,México,Jalisco,Zapopan Jalisco,"Av. Vallarta #9997 Col. Rancho Contento, C.P. 45010 Zapopan Jalisco",Riconada del Bosque,,Fidel Valdivia González,3330013300 EXT.4521,fmontoya@kenworthjalisco.com,,,,,,,
111,Fundacion Universitaria Sanitas,-74.105457,46.45722,09 de enero 2018,09 de enero 2021,Colombia,,Bogotá Colombia,calle 22B No66-46 bogota,,,Mario Arturo Isaza Ruget,(571) 589 5377,unisanitas@unisanitas.edu.co,,,,,,,
112,Agrivet,-104.042114,20.53769,21 de agosto 2018,21 de agosto 2021,Mexico,Jalisco,Ameca Jalisco,"General Ramon Corona 1, Colonia Centro Ameca Jalisco C.P 46600",Centro,46600,Carmen Alicia herrera Montes de Oca,( 375) 758 2299,,,,,,,,
113,FEJAL,-103.382927,20.696829,18 de febrero 2018,18 de febrero,México,Jalisco,Guadalajara Jalisco,"Ruben Darío 13134, Col. Providencia, C.P 44630 Guadalajara Jalisco",Providencia,446430,José Luis Gonzalez Iñigo,33 3817 0020,informes@fejal.org,,,,,,,
114,FIRA,-104.047153,20.546255,,2020,México,Jalisco,Ameca Jalisco,Juarez #58 A segundo piso Col centro,Centro ,46600,Mario Alberto Raya Cervantes,772104175,maraya@fira.gob.mx,,,,,,,
115,Notaria Publica 57 (Corporativo Global 57 S.C),-103.373422,20.670886,14 de julio 2019,14 de julio 2022,México,Jalisco,Guadalajara Jalisco,"Avenida Guadalupe Zuno 2103, Colonia Americana ",Americana,44140,Victor Flores Márquez ,36 30 10 20,corporativog57@hotmail.com,,,,,,,
117,"Empresa ""Dorantes Aranda y Asociados""",-103.409847,20.710404,02 de julio 2019,02 de julio 2022,México,Jalisco,"Guadalajara, Jalisco",Torre Celtis Real Acueducto # 240 int. 8 Puerta de Hierro,Puerta de Hierro,45116,Jorge Dorantes Aranda,(33)36400503,jpadilla@dorantesaranda.com,,,,,,,
118,SEERAUBER AUTOMOTIVE (Seerauber Industria S.A de C.V),-103.317974,20.565713,02 de julio 2019,02 de julio 2022,México,Jalisco,"Guadalajara, Jalisco",Circuito de la productividad #120-18 col. Parque Industrial el salto,Parque Industrial,,Ernesto Sánchez Proal,36971774 ext. 301,rh@seerauber.com,,,,,,,
119,"Bufet Juridico ""López Díaz y Adociados""",-99.127639,19.435173,02 de julio 2019,02 de julio 2022,México,Ciudad de México,Ciudad de México,Justo Sierra #89 col. Centro ,Centro,6060,Cristian Israel López Díaz,3310199338,lic_cristiam25@hotmail.com,,,,,,,
120,NEMI ,-99.180927,19.390017,02 de julio 2019,02 de julio 2022,México,Ciudad de México,Ciudad de México,"Av. Viaducto Rio Becerra 281, Colonia Nápoles, Delegacion Benito Juárez, C.P. 03810 Ciudad de Mexico",Nápoles,3810,Felix Gavito Olivar,56692213/ 56692210 ext 130,dsolange@nemi.com.mx,,,,,,,
121,Berries Costa de Veracruz,-103.597883,20.55111,30 de abril 2019,30 de abril 2022,México,Jalisco,San Isidro Mazatepec,Camino a los Volcanes km 2.5 SN San Isidro Mazatepec ,Camino a Volcanes,45340,Jesus Alberto de la Torre Onofre,3318929223,CONTACOSTAJAL@GMAIL.COM,,,,,,,
122,Colegio del Valle (Construyendo Historias de exito),-103.71319,20.645651,29 de marzo 2019,29 de marzo 2022,México,Jalisco,Tala Jalisco,Prolongacion Brizuela no. 45 Col. el Cortijo C.P. 45310,Prolongación Brizuela,45310,Leonardo Rodriguez Carrillo,3325379516,colegiodelvalle.tala@gmail.com,,,,,,,
123,Bioterra Fertilizantes,-103.378212,20.657562,30 de abril 2019,30 de abril 2022,México,Jalisco,"Guadalajara, Jalisco",Zapote #1546 col. Del Fresno C.P. 44900 Guadalajara Jalisco,Del Fresno,44900,Felipe de Jesus Barba Orozco,3314538703,fjbarbao@bioterra.mx,,,,,,,
124,NR abogados,-103.702298,20.652488,22 de enero 2019,22 de enero 2022,México,Jalisco,Tala Jalisco,Hidalgo #82 A C.P 45300 Tala Jalisco,Centro,45300,Miguel Jonathan Naranjo Romero,3331566883,John_naranjolive@live.com.mx,,,,,,,
125,Tornero Ferreteria y Materiales (calidad y servicio),-104.035532,20.53656,17 de enro 2019,17 de enero 2021,México,Jalisco,"Ameca, Jalisco",Avenida Patria #133 Ameca Jal C.P. 46600,San Isidro,46600,Angelica Rosas Balcazar,375 755 3095,materialestornero@gmail.com,,,,,,,
126,ANTRA Global wallet,-103.418934,20.676942,16 de enero 2019,16 de enero 2021,México,Jalisco,"Guadalajara, Jalisco",Las Llanura #333 Colonia Prados Vallarta C.P. 45020 Zapopan,Padros,45020,Miguel Ángel de la Torre Romo,33 6781 1456,contact@antra.io,,,,,,,
127,Mega Ofertas Outlet,-103.367047,20.684812,11 de enero 2019,11 de enero 2021,México,Jalisco,Tlajomulco de Zúñiga,Hortensia #1350 Col. Tulipanes C.P. 45640 Tlajomulco de Zuñiga Jalisco,Tulipanes,45640,Victor Manuel Flores Gómez,3316017595,contacto@megaofertas.mx,,,,,,,
128,MARDRUK FERRETERIA S.A DE S.V,-103.45562,20.71655,22 de enero 2019,22 de enero de 2022,México,Jalisco,"Guadalajara, Jalisco",Avenida Aviación #3800 C.P. 45019 Zapopan Jalisco,Aviación,45019,Victor Manuel Borrego Aguirre,3315039958,victor@mardukferreteria.com.mx,,,,,,,
129,Grupo Vida,-103.546915,20.729407,21 de febrero 2019,21 de febrero 2022,México,Jalisco,"Guadalajara, Jalisco","#300 de la calle Ejido, CP 45221 La Venta de Astilleros Zapopan",La venta de Astilleros,45221,Jorge Manuel Sánchez Lanzilotti,3332080400,Alejandro.kleemann@grupovida.com,,,,,,,
130,Consultores Fiscalistas,-103.395929,20.664635,25 de junio 2019,25 de junio 2022,México,Jalisco,"Guadalajara, Jalisco","Calle San Gabriel #188 Col. Chapalita, Guadalajara Jalisco",Chapalita,,Prisma Janeth Aguilar Cuenca,3316018140,prisma@aeconsultores.com,,,,,,,
131,Secundaria Tecnica 109,-104.025313,20.538847,24 de enero 2019,24 de enero 2022,México,Jalisco,"Ameca, Jalisco",Francisco I Madero 1-A Juárez san Nicolás Ameca Jal.,Juárez San Nicolás,46680,María Concepcion  Rodríguez Peña, 375 74 4 03 34,,,,,,,,
132,Hospital Regional de Ameca,-104.033948,20.533875,14 de junio 2019,14 de junio 2022,México,Jalisco,"Ameca, Jalisco","Cardenal José Salazar col. El Manantial, Ameca Jalisco.",El Manantial,46640,Angel Agustin Garcia González,(375)75851247580531 ext. 101 y 107,direccion.hrameca@gmail.com,,,,,,,
133,CEDHJ (Comisión Estatal de Derechos Humanos Jalisco),-103.370916,20.675408,07 de marzo 2019,07 de marzo 2022,México,Jalisco,"Guadalajara, Jalisco",Calle Pedro Moreno #1616 C.P. 44150 Guadalajara Jalisco,Americana,44150,Alfonso Hernandez Barrón,(375) 75 8  76 48 ,cedhjcontinuaameca@gmail.com,,,,,,,
134,Secretaria de Administracion del Estado de Jalisco ,-103.348888,20.696346,01 de marzo 2019,01 de marzo 2022,México,Jalisco,"Guadalajara, Jalisco","Av. Fray Antonio Alcalde 1221, Miraflores, 44266 Guadalajara, Jal.",Observatorio,44266,Leslie Hernandez Quintero,333 818 28 00 ,rosalia.herrera@jalisco.gob.mx,,,,,,,
135,DIF Tecolotlán,-104.032348,20.193816,23 de septiembre de 2019,Tiempo Indefinido,México,Jalisco,"Tecolotlán, Jalisco",Av. Guadalajara 140 Tecolotlán,,48540,Lic. Anabel López Lepe,349 77 60 353,tecolotlan@difjalisco.gob.mx,,,,,,,
136,DIF Ahualulco de Mercado ,-103.969958,20.695479,23 de septiembre de 2019,Tiempo Indefinido,México,Jalisco,"Ahualulco de Mercado, Jalisco","Petrita Gódinez, #6 Col. Centro",5 de mayo,46734,Diana Minerva García Flores,386 75 2 01 75,ahualulcodemercado@difjalisco.gob.mx,,,,,,,
137,H. Ayuntamiento de Mascota,-104.788278,20.523856,23-sep-2019,30-sep-22,México,Jalisco,"Mascota, Jalisco","Ayuntamiento 1, Col. Centro 46900",Centro,46900,Dra. Sara Eugenia Castillón Ochoa,01 (388) 38 6 03 25,presidencia.mascota@outlook.com,,,,,,,
138,nH Colection Hoteles,-103.37665,20.70177,23 de septiembre de 2019,Tiempo Indefinido,México,Jalisco,"Guadalajara, Jalisco",Sao Paulo 2334 Col. Providencia C.P.,Providencia,44630,Álvaro Barush Sánchez Gamiño,3336489500,nhcollectionguadalajara@nh-hotels.com,,,,,,,
139,Caja Popular Cristobal Colón,-104.044532,20.547045,01 de octubre de 2019,Tiempo indefinido,México,Jalisco,"Ameca, Jalisco",Constitución 38-A Col. Centro,Centro,46600,Antonio Mora Lizaola,386-753-3128,oscar.quezada@ccolon.org.mx,,,,,,,
140,JOMARJO,-103.829907,20.878996,01 de octubre de 2019,Tiempo indefinido,México,Jalisco,"Tequila, Jalisco",Heráclito 2-A Col. El Rosario C.P. 46403,El Rosario,46403,Jorge Martinez Cano,(374) 742 1788,licorpochteca.paola@hotmail.com,,,,,,,
141,"Financiera Nacional de Desarrollo Agropecuario, Rural, Forestal y Pesquero",-104.047976,20.547493,01 de octubre de 2019,Tiempo indefinido,México,Jalisco,"Ameca, Jalisco",Vallarta #37 Col. Centro C.P. 46600,Centro,46600,Salvador Ramirez Rivera,3757580520,saramirez@fnd.gob.mx,,,,,,,
142,Patronato de Ahualulco A.C,-103.981466,20.702923,23 de septiembre de 2019,Tiempo indefinido,México,Jalisco,"Ahualulco de Mercado, Jalisco",Santos Degollado C.P. 46730,Centro,46730,María de Jesús Gutíerrez de la Torre,4311000026,r.rocio1821@gmail.com,,,,,,,
143,Hotel SR,-103.454541,20.681613,01 de junio de 2019,01 de junio de 2022,México,,,"Pte. Manuel Gómez Morín 7306, Granja, 45010 Zapopan, Jal.",,,,33 1812 1900,recepcion@srhotel.mx,,,,,,,
144,IBM,-103.290876,20.566414,25 de octubre,25 de octubre 2024,México,Jalisco,"Guadalajara, Jalisco","Carretera al Castillo 2200 El Quince, 45680 El Salto",El salto,45680,,,,,,,,,,
145,Vidanta ,-103.402262,20.667098,22 de agosto,22 de agosto 2020,México,Jalisco,"Guadalajara, Jalisco","Plaza la Glorietta, Av Guadalupe 1162, Chapalita, 45040 Guadalajara, Jal.",Chapalita,45040,,624 163 4000,atencionclientes@vidanta.com,,,,,,,
146,SMURFIT KAPPA ,-103.713245,20.638255,,,México,Jalisco,"Tala, Jalisco",,,,,,,,,,,,,
147,JABIL,-103.400945,20.741932,,,México,Jalisco,,av. valdepeñas 1993 Lomas de Zapopan ,,45130,Carlos Eduardo León Fajardo,3318624337,juan_mojarro@jabil.com,,,,,,,
148,H. Ayuntamiento de Atengo,-104.238186,20.275163,12-nov.-18,30-sep-21,México,Jalisco,"Atengo, Jal. ","Hidalgo No. 4, Colonia centro, C.P. 48190 Mun. De Atengo , Jal.",Centro,48190,C. P. Nancy Maldonado Gómez ,3497710214 EXT. 113,atengoadmon1821@gmail.com,,,,,,,
149,H. Ayuntamieto de Etzatlán ,-104.080806,20.76364,12-nov.-18,30-sep-21,México,Jalisco,"Etzatlán, Jal. ","Escobedo No. 320, Colonia Centro, C.P. 46500 ",Centro,46500,Ing. Mario Camarena González Rubio ,3867531246,secretariogeneral@etzatlan.gob.mx,,,,,,,
150,H. Ayuntamiento de Tlajomulco ,-103.441602,20.475198,17-may.-19,30-sep-21,México,Jalisco,"Cabecera Municipal de Tlajomulco de Zuñiga, Jal.","Centro Administrativo Tlajomulco , edificio con el numero 70 de la calle Higuera",Centro,45640,CC. Ing. Salvador Zamora Zamora ,32834400,vinculación.tlajomulco@hotmail.com,,,,,,,
151,H. Ayuntamiento de Magdalena ,-103.96371,20.910757,22-may.-19,30-sep-21,México,Jalisco,"Magdalena, Jal. ","Av. Hidalgo No. 45, Colonia Centro C.P. 46470",Centro,46470,C. Fabiola Pulido Franco ,38674740636,www.magdalenajalisco.gob.mx,,,,,,,
152,H. Ayuntamiento de Tenamaxtlan ,-104.165653,20.21829,28-may.-19,30-sep-21,México,Jalisco,"Tenamaxtlán,  Jal.",Av. De los Maestros #4 ,Centro,,C. Yolanda Meza Zepeda,(349) 7750140/579/583/340,tenamaxtlan1518@hotmail.com,,,,,,,
153,DIF De Guachinango ,-104.378427,20.575053,8-mar.-19,30-sep-21,México,Jalisco,"Guachinango, Jal.","Cuauhutémoc #1, C.P. 46800 ",Centro,46800,Lic. José Saúl Hernández Caro,3751228699,psicarosaul@hotmail.com,,,,,,,
154,H. Ayuntamiento de El Arenal ,-103.695394,20.77663,8-mar.-19,30-sep-21,México,Jalisco,"El Arenal, Jal. ","General Marcelino García Barragan No. 99, colonia centro. C.P. 45350",Centro,45350,Ing. Jorge Abel Hermosillo Pulido ,374) 748 02 66 Fax 748 03 48 - 748 1375,elarenal@jalisco.gob.mx,,,,,,,
155,DIF De Amatitán ,-103.727603,20.832368,1-oct.-18,30-sep-21,México,Jalisco,"Amatitán, Jal. ","Juarez # 23, C.P. 45380 ",Centro,45380,Presidenta Lic. Leticia Hermosillo Ravelero/ Directora C. María Soledad Rivera ,01 374 74 51213,amatitan@difjalisco.gob.mx,,,,,,,
156,H. Ayuntamiento  de San Martín Hidalgo ,-103.929116,20.435736,12-nov.-18,30-sep-21,México,Jalisco,"San Martín de Hidalgo, Jal.","Av. Juarez #12, Colonia Centro, C.P. 46770",Centro,46770,C. Moises Rodríguez Camacho ,3857551763,medina-gutierrezyasoc@hotmail.com,,,,,,,
157,H. Ayuntamiento de San Marcos ,-104.194516,20.790756,12-nov.-18,30-sep-21,México,Jalisco,"San Marcos, Jal. ","Parque Vía No. 198, Colonia Cuauhtémoc, C.P. 06500",Centro,,Arq. David Sánchez Domínguez ,(386) 757-0645,snmarcos@jalisco.gob.mx,,,,,,,
158,H. Ayuntamiento de Tapalpa ,-103.757454,19.944519,1-ene.-18,30-sep-21,México,Jalisco,"Tapalpa, Jal. ","Parque Vía 198, Colonia Cuauhtemoc, C.P. 06500",Centro,,Mtra. Luz Elvira Manzano Ochoa ,(343) 432 0650,gobiernodetapalpa@hotmail.com,,,,,,,
159,H. Ayuntamiento de Amatitán ,-103.72819,20.831334,12-nov.-18,30-sep-21,México,Jalisco,"Amatitán, Jal. ","Zaragoza No. 42, Colonia Centro, C.P. 45380 ",Centro,,Ing. Gildardo Partida Meléndrez ,37450310,presidencia.amatitan1821@gmail.com,,,,,,,
160,DIF de San Martín de Hidalgo ,-103.931369,20.436158,1-oct.-18,30-sep-21,México,Jalisco,"San Martín de Hidalgo, Jal.","Independencia #8, C.P. 46770 ",Independencia,46770,Presidenta C. Ma. Magdalena Aldaz González / directora Lic. Paulina Fregoso Sánchez ,3857550419,dif@sanmartindehidalgo.gob.mx,,,,,,,
161,DIF De Tenamaxtlán ,-104.164073,20.216685,1-oct.-18,30-sep-21,México,Jalisco,"Tenamaxtlán,  Jal.","Calle Revolución Mexicana #13, C.P. 48570",Centro,48570,"Presidenta C. María Asunción Barajas Arechiga/ directora, C. Martha Zitlali Rodríguez Estrella  ",13497750040,tenamaxtlan@difjalisco.gob.mx,,,,,,,
162,DIF de Talpa de Allende ,-104.823621,20.379447,1-oct.-18,30-sep-21,México,Jalisco,"Talpa de Allende, Jal. ","Calle Salvador Martín Uribe Gil #3, C.P. 48200",Centro,48200,Presidenta L.C. Norma Alica Sánchez Guerra / Directora C. Ana Lizeth Peinado Alzate,3850275,diftalpa011012@gmail.com,,,,,,,
163,DIF de Magdalena ,-103.972818,20.911201,1-oct.-18,30-sep-21,México,Jalisco,"Magdalena, Jal. ","Av. Manuel Ávila Camacho #321, C.P. 46470",Centro,46470,Presidenta Lic. Virginia Pulido Franco /Directora C. María del Carmen  López Caro ,13867441639,magdalena@difjalisco.gob.mx,,,,,,,
164,DIF de Ameca ,-104.04756,20.546909,15-feb.-18,30-sep-21,México,Jalisco,"Ameca, Jal. ","Dr. Luis Romero Arias #9, Colonia Centro",Centro,46600,Directora C. Monica Flores Palacios ,13757580618,ameca@difjalisco.gob.mx,,,,,,,
165,DIF De Teuchitlán ,-103.846398,20.683795,01-oct.-18,30-sep-21,México,Jalisco,"Teuchitlán , Jal. ","Vicente Guerrero #23, C.P. 46760 ",Centro,46760,Presidenta C. Imelda Meza Rosales /Directora Lic. Alba María Flores Meza .,13847330264,teuchitlan@difjalisco.gob.mx,,,,,,,
166,H. Ayuntamiento de Tala ,-103.702077,20.649698,01-oct.-18,30-sep-21,México,Jalisco,"Tala, Jal. ","Ramón Corona No. 5, colonia centro, C.P. 45300 ",Centro,45300,Ing. Enrique Gabriel Buenrostro Ahued,(384) 738 2507,secretariaparticular_tala@hotmail.com,,,,,,,
167,DIF De Etzatlán ,-104.084833,20.764791,01-oct.-18,30-sep-21,México,Jalisco,"Etzatlán, Jal. ","Escobedo #135, C.P. 46500",Centro,46500,Presidenta Lic. María Fernanda Covarrubias Lanzagorta /directora C. Iliana Patricia Mariscal Morales ,3310803072,dif@etzatlan.gob.mx,,,,,,,
168,DIF De Atenguillo ,-104.493427,20.415258,01-oct.-18,30-sep-21,México,Jalisco,"Atenguillo, Jal. ","Priv. Independencia #18, C.P. 48100",Centro,48100, Presidenta C. Maria Elena Ruelas Bernal /Directora C. Viridiana Oracel Gradilla Duran ,3312810722,difatenguillo.1821@gmail.com,,,,,,,
169,H. Ayuntamiento de Mixtlán ,-104.408709,20.438899,01-oct.-18,30-sep-21,México,Jalisco,"Mixtlán ,Jal. ","Eliseo Morales No. 21, Colonia Centro , C.P. 46850 ",Centro,46850,C. Maria Magdalena Moreno Ángel ,3887365249 ext. 101,mixtlan2015@hotmail.com,,,,,,,
170,H. Ayuntamiento de Tecolotlán ,-104.050376,20.202381,15-nov.-18,30-sep-21,México,Jalisco,"Tecolotlán, Jal. ","Cristobal de Ovejo No. 37, Colonia Centro, C.P. 48540",Centro,48540,Lic. Ricardo Ramírez Ruelas ,( 349) 776 0915,presidencia@tecolotlan.gob.mx,,,,,,,
171,H. Ayuntamiento de Villa Corona ,-103.6642,20.417527,01-oct.18,30-sep-21,México,Jalisco,"Villa Corona, Jal. ","Venustiano Carranza No. 24, Colonia Centro, C.P. 45730 ",Centro,45730,Lic. Luis Rene Ruelas Ortega ,3877780515/3877780222,educación@villacorona.gob.mx,,,,,,,
172,H. Ayuntamiento de Cocula ,-103.824461,20.35878,15-nov.-18,30-sep-21,México,Jalisco,"Cocula , Jal. ","Portal Obregón No. 30, Colonia Centro , C.P. 48500 ",Centro,48500,C. Miguel de Jesús Esparza Partida ,(377) 773 0000,presidencia@cocula.gob.mx,,,,,,,
173,H. Ayuntamiento de Ahualulco De Mercado ,-103.976485,20.701006,01-oct.-2018,30-sep-21,México,Jalisco,"Ahualulco de Mercado, Jal. ","González Madrid No. 11, colonia centro, C.P. 46730",Centro,46730,Dr. José Manuel Medrano Barba ,(386) 7520158,municipiodeahualulco@hotmail.com,,,,,,,
174,H. Ayuntamiento de Tequila ,-103.839526,20.885022,01-oct.-2018,30-sep-21,México,Jalisco,"Tequila , Jal. ","José Cuervo No. 33, Colonia Centro, C.P. 46400 ",Centro,476400,C. José Alfonso Magallanes Rubio ,3747420012,acastillo@tequilajalisco.gob.mx,,,,,,,
175,H. Ayuntamiento de Teuchitlán ,-103.84743,20.683228,01-oct.-2018,30-sep-21,México,Jalisco,"Teuchitlán , Jal. ","16 de septiembre No. 10 , Colonia Centro, C.P. 46760 ",Centro,,C. José Alejandro Arreola Soto ,7330833 ext. 104,h.ayuntamientoteuchitlan@hotmail.com,,,,,,,
176,H. Ayuntamiento de Atenguillo ,-104.493418,20.415251,01-oct.-2018,30-sep-21,México,Jalisco,"Atenguillo, Jal. ","Javier Mina No. 8, Colonia Centro, C.P. 48100 ",Centro,48100,C. Mayra Isela Guitrón Contreras ,(388) 736 8878 Ext 103,gobiernoatenguillo1821 @gmail.com,,,,,,,
177,H. Ayuntamiento De Acatlán De Juarez ,-103.591479,20.422161,01-oct.-2018,30-sep-21,México,Jalisco,"Acatlán de Juarez , Jal. ","Lopez Cotilla No. 11, Colonia Centro, C.P. 45700",Centro,45700,T.I. Gerardo Uvaldo Ochoa Alvarado ,3877720128,haciendaacatlan@hotmail.com,,,,,,,
178,H. Ayuntamiento de Ameca ,-104.047129,20.547828,01-oct.-2018,30-sep-21,México,Jalisco,"Ameca, Jal. ","Juarez No. 32, Colonia Centro, C.P. 46600 ",Centro,46600,Ing. Juan Valentín Serrano Jímenez ,3757550051 EXT.11,sindicatura@ameca.gob.mx,,,,,,,
179,H. Ayuntamiento de Mascota,-104.787933,20.523736,23-sep-2019,30-sep-22,México,Jalisco,Mascota,"Ayuntamiento 1, Col. Centro 46900",Centro,46900,Dra. Sara Eugenia Castillón Ochoa,01 (388) 38 6 03 25,presidencia.mascota@outlook.com,,,,,,,